OBJECT_NAME,OBJECT_ID,EPOCH,MEAN_MOTION,ECCENTRICITY,INCLINATION,RA_OF_ASC_NODE,ARG_OF_PERICENTER,MEAN_ANOMALY,EPHEMERIS_TYPE,CLASSIFICATION_TYPE,NORAD_CAT_ID,ELEMENT_SET_NO,REV_AT_EPOCH,BSTAR,MEAN_MOTION_DOT,MEAN_MOTION_DDOT
STARLINK-37484,2026-133V,2026-06-16T20:00:01.999008,16.14078858,.0001141,53.1603,324.7475,75.0379,118.2081,0,U,69527,999,185,-.74634E-3,-.955979E-2,.36255E-3
STARLINK-37523,2026-133W,2026-06-16T20:00:01.999008,16.14240122,.0000355,53.1603,324.7436,70.1450,124.9178,0,U,69528,999,185,-.74691E-3,-.967338E-2,.37117E-3
STARLINK-37369,2026-133X,2026-06-16T20:00:01.999008,16.14409735,.0000185,53.1601,324.7398,75.1797,121.6801,0,U,69529,999,185,-.74521E-3,-.97659E-2,.37847E-3
STARLINK-37670,2026-133Y,2026-06-16T20:00:01.999008,16.14740465,.0001075,53.1601,324.7372,51.9906,146.2557,0,U,69530,999,185,-.73064E-3,-.980171E-2,.38269E-3
STARLINK-37897,2026-133Z,2026-06-16T20:00:01.999008,16.14930206,.0000509,53.1600,324.7311,53.8026,147.1888,0,U,69531,999,180,-.68109E-3,-.926664E-2,.34669E-3
STARLINK-37933,2026-133AA,2026-06-16T20:00:01.999008,16.15245283,.0000783,53.1600,324.7281,42.8798,159.4933,0,U,69532,999,180,-.63675E-3,-.886527E-2,.32147E-3
STARLINK-37890,2026-133AB,2026-06-16T20:00:01.999008,16.15411532,.0001033,53.1602,324.7245,46.6878,157.4438,0,U,69533,999,180,-.60796E-3,-.856953E-2,.30313E-3
STARLINK-37407,2026-133AC,2026-06-16T20:00:01.999008,16.15669586,.0000981,53.1599,324.7177,45.8631,161.2867,0,U,69534,999,185,-.62948E-3,-.903262E-2,.33443E-3
STARLINK-37888,2026-133AD,2026-06-16T20:00:01.999008,16.15885873,.000097,53.1601,324.7146,38.7978,169.9340,0,U,69535,999,180,-.56442E-3,-.823564E-2,.28408E-3
STARLINK-37889,2026-133AE,2026-06-16T20:00:01.999008,16.12684030,.0000666,53.1619,324.7749,67.0979,113.3950,0,U,69536,999,180,-.94935E-3,-.1101886E-1,.46031E-3
2026-134A,2026-134A,2026-06-16T17:23:06.260928,15.09200639,.0014154,97.7003,237.8242,273.9919,85.9691,0,U,69538,999,24,.41008E-4,.587E-5,0
2026-134B,2026-134B,2026-06-16T17:22:52.264128,15.09360646,.0014487,97.6974,237.8233,276.4553,83.5026,0,U,69539,999,23,.83138E-4,.1264E-4,0
2026-134C,2026-134C,2026-06-16T17:22:49.723968,15.09388935,.0013786,97.6988,237.8231,277.2768,82.6893,0,U,69540,999,23,.83187E-4,.1265E-4,0
2026-134D,2026-134D,2026-06-16T17:22:44.304960,15.09445295,.001484,97.7025,237.8255,276.5336,83.4203,0,U,69541,999,23,.83078E-4,.1266E-4,0
2026-134E,2026-134E,2026-06-16T17:22:42.407616,15.09467803,.0014658,97.7041,237.8242,277.3930,82.5632,0,U,69542,999,23,.83106E-4,.1267E-4,0
2026-134F,2026-134F,2026-06-16T17:22:38.568864,15.09514165,.0013913,97.6997,237.8242,279.0587,80.9067,0,U,69543,999,23,.8316E-4,.1269E-4,0
2026-134G,2026-134G,2026-06-16T17:22:31.040832,15.09597497,.0014373,97.7039,237.8238,280.6343,79.3267,0,U,69544,999,23,.83063E-4,.1271E-4,0
2026-134H,2026-134H,2026-06-16T17:22:25.300416,15.09663011,.0014258,97.7027,237.8253,282.3147,77.6485,0,U,69545,999,22,.83079E-4,.1274E-4,0
SHIJIAN-31,2026-136A,2026-06-16T20:21:12.015072,2.28095748,.7310406,63.4649,356.1810,171.7246,356.2040,0,U,69570,999,5,.28088E-3,.6163E-4,.24751E-6
